STARLINK-35555          
1 66425U 25259D   25325.16668980 -.01409207  00000+0 -66476-2 0  9992
2 66425  42.9977 175.4035 0001720 273.0985 329.4750 15.85049754  2811
STARLINK-35589          
1 66426U 25259E   25325.16668980 -.01467064  00000+0 -67931-2 0  9995
2 66426  42.9984 175.3992 0001716 271.9069 332.7848 15.85079329  2812
STARLINK-35611          
1 66427U 25259F   25325.16668980 -.01500457  00000+0 -69583-2 0  9995
2 66427  42.9979 175.3933 0001716 270.0333 336.7579 15.85108584  2817
STARLINK-35610          
1 66428U 25259G   25325.16668980 -.01527233  00000+0 -70981-2 0  9991
2 66428  42.9978 175.3869 0001705 271.4861 337.7784 15.85112058  2814
STARLINK-35533          
1 66429U 25259H   25325.16668980 -.01543136  00000+0 -71830-2 0  9996
2 66429  42.9974 175.3803 0001740 272.4922 339.1854 15.85109234  2813
STARLINK-35470          
1 66430U 25259J   25325.16668980 -.01554579  00000+0 -72468-2 0  9999
2 66430  42.9982 175.3750 0001761 271.6966 342.4335 15.85100352  2810
STARLINK-35439          
1 66431U 25259K   25325.16668980 -.01564728  00000+0 -72969-2 0  9993
2 66431  42.9975 175.3685 0001706 272.3149 343.9184 15.85111621  2819
STARLINK-35446          
1 66432U 25259L   25325.16668980 -.01561025  00000+0 -72781-2 0  9993
2 66432  42.9973 175.3623 0001711 273.0205 345.6199 15.85109098  2817
STARLINK-35457          
1 66433U 25259M   25325.16668980 -.01569893  00000+0 -73272-2 0  9991
2 66433  42.9979 175.3575 0001708 271.7487 349.2592 15.85103672  2812
STARLINK-35389          
1 66434U 25259N   25325.16668980 -.01591078  00000+0 -74432-2 0  9991
2 66434  42.9982 175.3517 0001744 273.4207 349.9151 15.85095322  2812
STARLINK-35502          
1 66435U 25259P   25325.16668980 -.01595646  00000+0 -74620-2 0  9996
2 66435  42.9981 175.3472 0001703 272.5988 352.7105 15.85111200  2818
STARLINK-35501          
1 66436U 25259Q   25325.16668980  .00702991  00000+0  26691-2 0  9992
2 66436  42.9979 175.3370 0002348 284.3508 345.1538 15.85035924  2812
